GLOBALSTAR M067         
1 32263U 07048A   24300.88496965 -.00000080  00000+0  12549-3 0  9991
2 32263  51.9755 358.5871 0000977 182.3219 349.4611 12.40658057780524
GLOBALSTAR M070         
1 32264U 07048B   24300.96856980 -.00000060  00000+0  24411-3 0  9997
2 32264  51.9725 118.9735 0000766  83.2405  76.7873 12.62304078784216
GLOBALSTAR M066         
1 32265U 07048C   24300.86045637 -.00000069  00000+0  20988-3 0  9990
2 32265  51.9694 345.7333 0000400 169.4676   1.2607 12.42163922786385
GLOBALSTAR M068         
1 32266U 07048D   24300.76299773 -.00000024  00000+0  44245-3 0  9995
2 32266  51.9888 293.8025 0001091   2.2248 168.2888 12.62805198788060
GLOBALSTAR M079         
1 37188U 10054A   24300.91972465 -.00000083  00000+0  11319-3 0  9998
2 37188  52.0011 129.8904 0001152 100.8669  45.2817 12.62266302646991
GLOBALSTAR M074         
1 37189U 10054B   24300.94594116 -.00000071  00000+0  18032-3 0  9991
2 37189  51.9989 129.1651 0000758  95.3148  52.5110 12.62258345647601
GLOBALSTAR M076         
1 37190U 10054C   24300.88053521 -.00000049  00000+0  30553-3 0  9993
2 37190  52.0003 129.5202 0000893 113.7503 332.9296 12.62272751647313
GLOBALSTAR M077         
1 37191U 10054D   24300.88360295 -.00000083  00000+0  11684-3 0  9995
2 37191  52.0064  86.2963 0000804 103.0927  58.3480 12.62265907648420
